SL-16 R/B               
1 24298U 96051B   26160.24119501  .00000125  00000+0  94253-4 0  9998
2 24298  70.7635 341.4660 0014784 348.9805  11.0988 14.12443276534575
ORBVIEW 2 (SEASTAR)     
1 24883U 97037A   26160.35305047  .00000225  00000+0  94249-4 0  9993
2 24883  98.8682 327.1554 0002954 132.3538 227.7897 14.35549463521622
SL-16 R/B               
1 25400U 98043G   26160.43456501  .00000044  00000+0  37277-4 0  9995
2 25400  98.8360 114.5273 0010896 106.5639 253.6738 14.26067350452069
SL-16 R/B               
1 25407U 98045B   26160.25444225 -.00000023  00000+0  12707-4 0  9993
2 25407  71.0122 349.0130 0009521 251.4360 108.5729 14.16204882440063
ISS (ZARYA)             
1 25544U 98067A   26160.51346514  .00007341  00000+0  13794-3 0  9995
2 25544  51.6332 338.0748 0006877 150.8507 209.2867 15.49683556570568
CZ-4B R/B               
1 25732U 99025C   26160.36897609  .00000048  00000+0  43734-4 0  9993
2 25732  98.6486 202.4040 0038239  81.4937 294.4084 14.18282123401166
OKEAN-O                 
1 25860U 99039A   26160.43980201  .00000534  00000+0  76681-4 0  9996
2 25860  97.9317 219.3263 0001799  77.6198 282.5216 14.80457985447966
SL-16 R/B               
1 25861U 99039B   26160.40126833  .00000425  00000+0  60589-4 0  9996
2 25861  97.9841 219.2863 0013934 324.2346  35.7933 14.81837427450449
DELTA 2 R/B             
1 25876U 99041E   26159.11557659  .00000878  00000+0  17901-3 0  9996
2 25876  51.7662 300.0336 0500945 255.1992  99.2946 14.12000165375800
HELIOS 1B               
1 25977U 99064A   26160.44541402  .00001343  00000+0  15275-3 0  9990
2 25977  98.1622  65.3610 0002402 102.1923 257.9562 14.87986409698901
TERRA                   
1 25994U 99068A   26160.49316786  .00000338  00000+0  77728-4 0  9998
2 25994  97.9459 210.3442 0001016 224.6888 242.2888 14.61096977408484
SL-16 R/B               
1 26070U 00006B   26160.50555980 -.00000259  00000+0 -10713-3 0  9995
2 26070  71.0031 264.7768 0015123  35.0457 325.1658 14.15836180361552
TITAN 4B R/B            
1 26474U 00047B   26160.44368596  .00002818  00000+0  17657-3 0  9991
2 26474  67.9872 142.3687 0045585 294.9697  64.6720 15.10152029406762
ENVISAT                 
1 27386U 02009A   26160.47135866  .00000079  00000+0  39298-4 0  9992
2 27386  98.3831 111.9620 0001330  90.1392  20.4397 14.39063045272372
IDEFIX & ARIANE 42P R/B 
1 27422U 02021B   26160.43867550  .00000191  00000+0  89173-4 0  9997
2 27422  98.5942  98.0058 0010602 279.3660  80.6324 14.31078527257148
AQUA                    
1 27424U 02022A   26160.53625213  .00000744  00000+0  15770-3 0  9994
2 27424  98.4273 129.6665 0001411  53.9380  58.1767 14.62146575282157
CZ-4B R/B               
1 27432U 02024C   26160.38021661  .00000030  00000+0  38016-4 0  9992
2 27432  98.8702 213.2507 0051081 121.9752 254.3883 14.14563239242207
MIDORI II (ADEOS-II)    
1 27597U 02056A   26160.43788029  .00000232  00000+0  10896-3 0  9992
2 27597  98.7874 119.6320 0002233  87.6382 272.5055 14.29345377223403
H-2A R/B                
1 27601U 02056E   26160.48479338  .00000179  00000+0  77625-4 0  9997
2 27601  98.3309 117.4403 0068945 247.8747 223.0025 14.33818833227266
CZ-4B R/B               
1 28059U 03049C   26160.46093036  .00000294  00000+0  79143-4 0  9998
2 28059  98.6896 158.9999 0047231 312.7029  47.0193 14.55095049199941
CZ-2C R/B               
1 28222U 04012C   26160.10779161  .00082418  00000+0  49560-3 0  9999
2 28222  97.7081 234.8409 0008757 319.5397  40.5216 15.77442882218629
SL-16 R/B               
1 28353U 04021B   26160.38296838 -.00000255  00000+0 -10770-3 0  9991
2 28353  71.0020  40.0683 0007474 264.0490  95.9781 14.14611754135801
CZ-4B R/B               
1 28415U 04035C   26160.35274352  .00007098  00000+0  23975-3 0  9990
2 28415  97.3375 193.5150 0030869   6.3474 353.8152 15.30510841193929
CZ-2C R/B               
1 28480U 04046B   26160.47865225  .00000060  00000+0  37908-4 0  9996
2 28480  98.1950  69.7408 0138171 243.2180 115.4812 14.27024927121599
ARIANE 5 R/B            
1 28499U 04049H   26160.45117760  .00000687  00000+0  81725-4 0  9992
2 28499  98.2718 332.4059 0084937  54.2640 306.6437 14.85438153159418
CZ-2D R/B               
1 28738U 05024B   26160.50298323  .00051864  00000+0  45437-3 0  9995
2 28738  97.3494 179.5527 0004641  70.4712 289.7050 15.68719452154131
ALOS (DAICHI)           
1 28931U 06002A   26160.46712455  .00000943  00000+0  16540-3 0  9994
2 28931  98.1320 116.0588 0001738  60.4830 299.6549 14.70034508 86962
H-2A R/B                
1 28932U 06002B   26160.40820505  .00005218  00000+0  25287-3 0  9993
2 28932  98.2555 315.5351 0049631 289.4709  70.1164 15.17964716108347
RESURS-DK 1             
1 29228U 06021A   26160.30119859  .00002125  00000+0  12552-3 0  9990
2 29228  69.9339 359.9663 0006539 298.0089  62.0415 15.13181843101380
CZ-4B R/B               
1 29507U 06046C   26160.40736484  .00003721  00000+0  18566-3 0  9991
2 29507  97.5457 205.0383 0031316 311.1389  48.7142 15.17726210 73955
CZ-2C R/B               
1 31114U 07010B   26160.31059244  .00000073  00000+0  52457-4 0  9997
2 31114  98.4091 269.0471 0059472  28.9130 331.5321 14.20274428992723
