OBJECT_NAME,OBJECT_ID,EPOCH,MEAN_MOTION,ECCENTRICITY,INCLINATION,RA_OF_ASC_NODE,ARG_OF_PERICENTER,MEAN_ANOMALY,EPHEMERIS_TYPE,CLASSIFICATION_TYPE,NORAD_CAT_ID,ELEMENT_SET_NO,REV_AT_EPOCH,BSTAR,MEAN_MOTION_DOT,MEAN_MOTION_DDOT
SL-16 R/B,1996-051B,2026-06-09T05:47:19.248864,14.12443276,.0014784,70.7635,341.4660,348.9805,11.0988,0,U,24298,999,53457,.94253E-4,.125E-5,0
ORBVIEW 2 (SEASTAR),1997-037A,2026-06-09T08:28:23.560608,14.35549463,.0002954,98.8682,327.1554,132.3538,227.7897,0,U,24883,999,52162,.94249E-4,.225E-5,0
SL-16 R/B,1998-043G,2026-06-09T10:25:46.416864,14.26067350,.0010896,98.8360,114.5273,106.5639,253.6738,0,U,25400,999,45206,.37277E-4,.44E-6,0
SL-16 R/B,1998-045B,2026-06-09T06:06:23.810400,14.16204882,.0009521,71.0122,349.0130,251.4360,108.5729,0,U,25407,999,44006,.12707E-4,-.23E-6,0
ISS (ZARYA),1998-067A,2026-06-09T12:19:23.388096,15.49683556,.0006877,51.6332,338.0748,150.8507,209.2867,0,U,25544,999,57056,.13794E-3,.7341E-4,0
CZ-4B R/B,1999-025C,2026-06-09T08:51:19.534176,14.18282123,.0038239,98.6486,202.4040,81.4937,294.4084,0,U,25732,999,40116,.43734E-4,.48E-6,0
OKEAN-O,1999-039A,2026-06-09T10:33:18.893664,14.80457985,.0001799,97.9317,219.3263,77.6198,282.5216,0,U,25860,999,44796,.76681E-4,.534E-5,0
SL-16 R/B,1999-039B,2026-06-09T09:37:49.583712,14.81837427,.0013934,97.9841,219.2863,324.2346,35.7933,0,U,25861,999,45044,.60589E-4,.425E-5,0
DELTA 2 R/B,1999-041E,2026-06-08T02:46:25.817376,14.12000165,.05009452,51.7662,300.0336,255.1992,99.2946,0,U,25876,999,37580,.17901315E-3,.878E-5,0
HELIOS 1B,1999-064A,2026-06-09T10:41:23.771328,14.87986409,.0002402,98.1622,65.3610,102.1923,257.9562,0,U,25977,999,69890,.15275E-3,.1343E-4,0
TERRA,1999-068A,2026-06-09T11:50:09.703104,14.61096977,.0001016,97.9459,210.3442,224.6888,242.2888,0,U,25994,999,40848,.77728E-4,.338E-5,0
SL-16 R/B,2000-006B,2026-06-09T12:08:00.366720,14.15836180,.0015123,71.0031,264.7768,35.0457,325.1658,0,U,26070,999,36155,-.10713E-3,-.259E-5,0
TITAN 4B R/B,2000-047B,2026-06-09T10:38:54.466944,15.10152029,.0045585,67.9872,142.3687,294.9697,64.6720,0,U,26474,999,40676,.17657E-3,.2818E-4,0
ENVISAT,2002-009A,2026-06-09T11:18:45.388224,14.39063045,.000133,98.3831,111.9620,90.1392,20.4397,0,U,27386,999,27237,.39298E-4,.79E-6,0
IDEFIX & ARIANE 42P R/B,2002-021B,2026-06-09T10:31:41.563200,14.31078527,.0010602,98.5942,98.0058,279.3660,80.6324,0,U,27422,999,25714,.89173E-4,.191E-5,0
AQUA,2002-022A,2026-06-09T12:52:12.184032,14.62146575,.0001411,98.4273,129.6665,53.9380,58.1767,0,U,27424,999,28215,.1577E-3,.744E-5,0
CZ-4B R/B,2002-024C,2026-06-09T09:07:30.715104,14.14563239,.0051081,98.8702,213.2507,121.9752,254.3883,0,U,27432,999,24220,.38016E-4,.3E-6,0
MIDORI II (ADEOS-II),2002-056A,2026-06-09T10:30:32.857056,14.29345377,.0002233,98.7874,119.6320,87.6382,272.5055,0,U,27597,999,22340,.10896E-3,.232E-5,0
H-2A R/B,2002-056E,2026-06-09T11:38:06.148032,14.33818833,.0068945,98.3309,117.4403,247.8747,223.0025,0,U,27601,999,22726,.77625E-4,.179E-5,0
CZ-4B R/B,2003-049C,2026-06-09T11:03:44.383104,14.55095049,.0047231,98.6896,158.9999,312.7029,47.0193,0,U,28059,999,19994,.79143E-4,.294E-5,0
CZ-2C R/B,2004-012C,2026-06-09T02:35:13.195104,15.77442882,.00087575,97.7081,234.8409,319.5397,40.5216,0,U,28222,999,21862,.49559869E-3,.82418E-3,0
SL-16 R/B,2004-021B,2026-06-09T09:11:28.468032,14.14611754,.0007474,71.0020,40.0683,264.0490,95.9781,0,U,28353,999,13580,-.1077E-3,-.255E-5,0
CZ-4B R/B,2004-035C,2026-06-09T08:27:57.040128,15.30510841,.0030869,97.3375,193.5150,6.3474,353.8152,0,U,28415,999,19392,.23975E-3,.7098E-4,0
CZ-2C R/B,2004-046B,2026-06-09T11:29:15.554400,14.27024927,.0138171,98.1950,69.7408,243.2180,115.4812,0,U,28480,999,12159,.37908E-4,.6E-6,0
ARIANE 5 R/B,2004-049H,2026-06-09T10:49:41.744640,14.85438153,.0084937,98.2718,332.4059,54.2640,306.6437,0,U,28499,999,15941,.81725E-4,.687E-5,0
CZ-2D R/B,2005-024B,2026-06-09T12:04:17.751072,15.68719452,.0004641,97.3494,179.5527,70.4712,289.7050,0,U,28738,999,15413,.45437E-3,.51864E-3,0
ALOS (DAICHI),2006-002A,2026-06-09T11:12:39.561120,14.70034508,.0001738,98.1320,116.0588,60.4830,299.6549,0,U,28931,999,8696,.1654E-3,.943E-5,0
H-2A R/B,2006-002B,2026-06-09T09:47:48.916320,15.17964716,.0049631,98.2555,315.5351,289.4709,70.1164,0,U,28932,999,10834,.25287E-3,.5218E-4,0
RESURS-DK 1,2006-021A,2026-06-09T07:13:43.558176,15.13181843,.0006539,69.9339,359.9663,298.0089,62.0415,0,U,29228,999,10138,.12552E-3,.2125E-4,0
CZ-4B R/B,2006-046C,2026-06-09T09:46:36.322176,15.17726210,.0031316,97.5457,205.0383,311.1389,48.7142,0,U,29507,999,7395,.18566E-3,.3721E-4,0
CZ-2C R/B,2007-010B,2026-06-09T07:27:15.186816,14.20274428,.0059472,98.4091,269.0471,28.9130,331.5321,0,U,31114,999,99272,.52457E-4,.73E-6,0
